STARLINK-1623
1 26129C 20057N   21325.08943892  .00000769  00000-0  51542-4 0  3258
2 26129  53.0528 122.8348 0001548  85.9784 305.5743 15.06386905    15
